[{"OBJECT_NAME":"NUSAT-44 (MARIA MITCHELL)","OBJECT_ID":"2024-043AA","EPOCH":"2026-03-09T22:12:18.524160","MEAN_MOTION":15.29764305,"ECCENTRICITY":0.0007331,"INCLINATION":97.5299,"RA_OF_ASC_NODE":207.7691,"ARG_OF_PERICENTER":214.9017,"MEAN_ANOMALY":145.1743,"EPHEMERIS_TYPE":0,"CLASSIFICATION_TYPE":"U","NORAD_CAT_ID":59122,"ELEMENT_SET_NO":999,"REV_AT_EPOCH":11209,"BSTAR":0.00061063193,"MEAN_MOTION_DOT":0.00017562,"MEAN_MOTION_DDOT":0},{"OBJECT_NAME":"STARLINK-32666","OBJECT_ID":"2024-229Y","EPOCH":"2026-03-09T22:18:51.821280","MEAN_MOTION":15.27594617,"ECCENTRICITY":0.0002793,"INCLINATION":43.0048,"RA_OF_ASC_NODE":269.7347,"ARG_OF_PERICENTER":257.7791,"MEAN_ANOMALY":102.2748,"EPHEMERIS_TYPE":0,"CLASSIFICATION_TYPE":"U","NORAD_CAT_ID":62214,"ELEMENT_SET_NO":999,"REV_AT_EPOCH":7059,"BSTAR":0.0013159306,"MEAN_MOTION_DOT":0.00036145,"MEAN_MOTION_DDOT":0}]
